[{"OBJECT_NAME":"ONEWEB-0335","OBJECT_ID":"2021-083R","EPOCH":"2026-05-29T00:20:54.220416","MEAN_MOTION":13.13469129,"ECCENTRICITY":0.0001968,"INCLINATION":87.894,"RA_OF_ASC_NODE":324.052,"ARG_OF_PERICENTER":93.4268,"MEAN_ANOMALY":266.7086,"EPHEMERIS_TYPE":0,"CLASSIFICATION_TYPE":"U","NORAD_CAT_ID":49201,"ELEMENT_SET_NO":999,"REV_AT_EPOCH":22840,"BSTAR":0.0010451,"MEAN_MOTION_DOT":3.94e-06,"MEAN_MOTION_DDOT":0.0},{"OBJECT_NAME":"ONEWEB-0336","OBJECT_ID":"2021-083S","EPOCH":"2026-05-28T23:39:26.601120","MEAN_MOTION":13.13469694,"ECCENTRICITY":0.0002164,"INCLINATION":87.8938,"RA_OF_ASC_NODE":324.0535,"ARG_OF_PERICENTER":99.0801,"MEAN_ANOMALY":261.0573,"EPHEMERIS_TYPE":0,"CLASSIFICATION_TYPE":"U","NORAD_CAT_ID":49202,"ELEMENT_SET_NO":999,"REV_AT_EPOCH":22839,"BSTAR":-0.00043157000000000004,"MEAN_MOTION_DOT":-1.45e-06,"MEAN_MOTION_DDOT":0.0},{"OBJECT_NAME":"ONEWEB-0337","OBJECT_ID":"2021-083T","EPOCH":"2026-05-28T23:53:52.806048","MEAN_MOTION":13.13469728,"ECCENTRICITY":0.0001858,"INCLINATION":87.8938,"RA_OF_ASC_NODE":324.0578,"ARG_OF_PERICENTER":98.8517,"MEAN_ANOMALY":261.2822,"EPHEMERIS_TYPE":0,"CLASSIFICATION_TYPE":"U","NORAD_CAT_ID":49203,"ELEMENT_SET_NO":999,"REV_AT_EPOCH":22839,"BSTAR":0.00013471,"MEAN_MOTION_DOT":6.2e-07,"MEAN_MOTION_DDOT":0.0},{"OBJECT_NAME":"ONEWEB-0338","OBJECT_ID":"2021-083U","EPOCH":"2026-05-28T20:59:27.417696","MEAN_MOTION":13.20773797,"ECCENTRICITY":0.0001572,"INCLINATION":87.9169,"RA_OF_ASC_NODE":278.3005,"ARG_OF_PERICENTER":94.7749,"MEAN_ANOMALY":265.3564,"EPHEMERIS_TYPE":0,"CLASSIFICATION_TYPE":"U","NORAD_CAT_ID":49204,"ELEMENT_SET_NO":999,"REV_AT_EPOCH":23426,"BSTAR":0.00012103999999999999,"MEAN_MOTION_DOT":6.2e-07,"MEAN_MOTION_DDOT":0.0},{"OBJECT_NAME":"ONEWEB-0339","OBJECT_ID":"2021-083V","EPOCH":"2026-05-29T00:06:15.654240","MEAN_MOTION":13.13495709,"ECCENTRICITY":0.0001803,"INCLINATION":87.8939,"RA_OF_ASC_NODE":324.0483,"ARG_OF_PERICENTER":97.1248,"MEAN_ANOMALY":263.0086,"EPHEMERIS_TYPE":0,"CLASSIFICATION_TYPE":"U","NORAD_CAT_ID":49205,"ELEMENT_SET_NO":999,"REV_AT_EPOCH":22837,"BSTAR":-0.013089000000000002,"MEAN_MOTION_DOT":-4.767e-05,"MEAN_MOTION_DDOT":0.0},{"OBJECT_NAME":"ONEWEB-0340","OBJECT_ID":"2021-083W","EPOCH":"2026-05-29T00:18:12.801024","MEAN_MOTION":13.1868731,"ECCENTRICITY":0.0001947,"INCLINATION":87.9167,"RA_OF_ASC_NODE":339.2709,"ARG_OF_PERICENTER":91.6791,"MEAN_ANOMALY":268.4564,"EPHEMERIS_TYPE":0,"CLASSIFICATION_TYPE":"U","NORAD_CAT_ID":49206,"ELEMENT_SET_NO":999,"REV_AT_EPOCH":22744,"BSTAR":0.00017734,"MEAN_MOTION_DOT":8.3e-07,"MEAN_MOTION_DDOT":0.0},{"OBJECT_NAME":"ONEWEB-0341","OBJECT_ID":"2021-083X","EPOCH":"2026-05-29T00:27:55.376352","MEAN_MOTION":13.18686284,"ECCENTRICITY":0.0001814,"INCLINATION":87.916,"RA_OF_ASC_NODE":339.2739,"ARG_OF_PERICENTER":105.4408,"MEAN_ANOMALY":254.6925,"EPHEMERIS_TYPE":0,"CLASSIFICATION_TYPE":"U","NORAD_CAT_ID":49207,"ELEMENT_SET_NO":999,"REV_AT_EPOCH":22746,"BSTAR":0.00027777000000000005,"MEAN_MOTION_DOT":1.22e-06,"MEAN_MOTION_DDOT":0.0},{"OBJECT_NAME":"ONEWEB-0342","OBJECT_ID":"2021-083Y","EPOCH":"2026-05-28T21:09:10.954656","MEAN_MOTION":13.2077213,"ECCENTRICITY":0.0001754,"INCLINATION":87.918,"RA_OF_ASC_NODE":278.2853,"ARG_OF_PERICENTER":99.3195,"MEAN_ANOMALY":260.8136,"EPHEMERIS_TYPE":0,"CLASSIFICATION_TYPE":"U","NORAD_CAT_ID":49208,"ELEMENT_SET_NO":999,"REV_AT_EPOCH":23423,"BSTAR":0.00013094000000000002,"MEAN_MOTION_DOT":6.6e-07,"MEAN_MOTION_DDOT":0.0},{"OBJECT_NAME":"ONEWEB-0343","OBJECT_ID":"2021-083Z","EPOCH":"2026-05-28T22:50:48.270048","MEAN_MOTION":13.18685342,"ECCENTRICITY":0.0001396,"INCLINATION":87.9163,"RA_OF_ASC_NODE":339.2855,"ARG_OF_PERICENTER":88.9686,"MEAN_ANOMALY":271.1606,"EPHEMERIS_TYPE":0,"CLASSIFICATION_TYPE":"U","NORAD_CAT_ID":49209,"ELEMENT_SET_NO":999,"REV_AT_EPOCH":22750,"BSTAR":0.00012606,"MEAN_MOTION_DOT":6.3e-07,"MEAN_MOTION_DDOT":0.0},{"OBJECT_NAME":"ONEWEB-0344","OBJECT_ID":"2021-083AA","EPOCH":"2026-05-28T23:58:58.241280","MEAN_MOTION":13.13471549,"ECCENTRICITY":0.0001808,"INCLINATION":87.893,"RA_OF_ASC_NODE":324.0652,"ARG_OF_PERICENTER":104.9725,"MEAN_ANOMALY":255.1604,"EPHEMERIS_TYPE":0,"CLASSIFICATION_TYPE":"U","NORAD_CAT_ID":49210,"ELEMENT_SET_NO":999,"REV_AT_EPOCH":22837,"BSTAR":0.00048192000000000005,"MEAN_MOTION_DOT":1.89e-06,"MEAN_MOTION_DDOT":0.0},{"OBJECT_NAME":"ONEWEB-0345","OBJECT_ID":"2021-083AB","EPOCH":"2026-05-28T23:46:45.602112","MEAN_MOTION":13.13470761,"ECCENTRICITY":0.0001756,"INCLINATION":87.8948,"RA_OF_ASC_NODE":324.0445,"ARG_OF_PERICENTER":103.3461,"MEAN_ANOMALY":256.7864,"EPHEMERIS_TYPE":0,"CLASSIFICATION_TYPE":"U","NORAD_CAT_ID":49211,"ELEMENT_SET_NO":999,"REV_AT_EPOCH":22838,"BSTAR":-8.2229e-05,"MEAN_MOTION_DOT":-1.7e-07,"MEAN_MOTION_DDOT":0.0},{"OBJECT_NAME":"ONEWEB-0346","OBJECT_ID":"2021-083AC","EPOCH":"2026-05-28T22:45:56.656224","MEAN_MOTION":13.18685824,"ECCENTRICITY":0.0002481,"INCLINATION":87.9157,"RA_OF_ASC_NODE":339.2876,"ARG_OF_PERICENTER":90.8556,"MEAN_ANOMALY":269.2861,"EPHEMERIS_TYPE":0,"CLASSIFICATION_TYPE":"U","NORAD_CAT_ID":49212,"ELEMENT_SET_NO":999,"REV_AT_EPOCH":22744,"BSTAR":9.080200000000002e-05,"MEAN_MOTION_DOT":4.9e-07,"MEAN_MOTION_DDOT":0.0},{"OBJECT_NAME":"ONEWEB-0348","OBJECT_ID":"2021-083AD","EPOCH":"2026-05-28T20:54:37.053216","MEAN_MOTION":13.20770454,"ECCENTRICITY":0.0002348,"INCLINATION":87.9181,"RA_OF_ASC_NODE":278.2912,"ARG_OF_PERICENTER":107.4028,"MEAN_ANOMALY":252.7362,"EPHEMERIS_TYPE":0,"CLASSIFICATION_TYPE":"U","NORAD_CAT_ID":49213,"ELEMENT_SET_NO":999,"REV_AT_EPOCH":23426,"BSTAR":6.7193e-05,"MEAN_MOTION_DOT":4e-07,"MEAN_MOTION_DDOT":0.0},{"OBJECT_NAME":"ONEWEB-0350","OBJECT_ID":"2021-083AE","EPOCH":"2026-05-29T00:00:10.107936","MEAN_MOTION":13.13468737,"ECCENTRICITY":0.0001875,"INCLINATION":87.8949,"RA_OF_ASC_NODE":324.0444,"ARG_OF_PERICENTER":103.8548,"MEAN_ANOMALY":256.279,"EPHEMERIS_TYPE":0,"CLASSIFICATION_TYPE":"U","NORAD_CAT_ID":49214,"ELEMENT_SET_NO":999,"REV_AT_EPOCH":22841,"BSTAR":0.00033195,"MEAN_MOTION_DOT":1.34e-06,"MEAN_MOTION_DDOT":0.0},{"OBJECT_NAME":"ONEWEB-0351","OBJECT_ID":"2021-083AF","EPOCH":"2026-05-28T20:44:43.344384","MEAN_MOTION":13.20772716,"ECCENTRICITY":0.0001172,"INCLINATION":87.9182,"RA_OF_ASC_NODE":278.2909,"ARG_OF_PERICENTER":119.6081,"MEAN_ANOMALY":240.5169,"EPHEMERIS_TYPE":0,"CLASSIFICATION_TYPE":"U","NORAD_CAT_ID":49215,"ELEMENT_SET_NO":999,"REV_AT_EPOCH":23422,"BSTAR":1.0562000000000002e-05,"MEAN_MOTION_DOT":1.7e-07,"MEAN_MOTION_DDOT":0.0},{"OBJECT_NAME":"ONEWEB-0352","OBJECT_ID":"2021-083AG","EPOCH":"2026-05-28T23:32:08.130624","MEAN_MOTION":13.13469772,"ECCENTRICITY":0.0001381,"INCLINATION":87.894,"RA_OF_ASC_NODE":324.0588,"ARG_OF_PERICENTER":93.4156,"MEAN_ANOMALY":266.7131,"EPHEMERIS_TYPE":0,"CLASSIFICATION_TYPE":"U","NORAD_CAT_ID":49216,"ELEMENT_SET_NO":999,"REV_AT_EPOCH":22850,"BSTAR":-0.000651,"MEAN_MOTION_DOT":-2.25e-06,"MEAN_MOTION_DDOT":0.0},{"OBJECT_NAME":"ONEWEB-0354","OBJECT_ID":"2021-083AH","EPOCH":"2026-05-28T19:34:39.286272","MEAN_MOTION":13.20772251,"ECCENTRICITY":0.0002184,"INCLINATION":87.9179,"RA_OF_ASC_NODE":278.2999,"ARG_OF_PERICENTER":109.076,"MEAN_ANOMALY":251.061,"EPHEMERIS_TYPE":0,"CLASSIFICATION_TYPE":"U","NORAD_CAT_ID":49217,"ELEMENT_SET_NO":999,"REV_AT_EPOCH":23425,"BSTAR":-7.0078e-05,"MEAN_MOTION_DOT":-1.6e-07,"MEAN_MOTION_DDOT":0.0},{"OBJECT_NAME":"ONEWEB-0355","OBJECT_ID":"2021-083AJ","EPOCH":"2026-05-29T00:13:46.631136","MEAN_MOTION":13.13468804,"ECCENTRICITY":0.0001628,"INCLINATION":87.893,"RA_OF_ASC_NODE":324.0555,"ARG_OF_PERICENTER":97.872,"MEAN_ANOMALY":262.2594,"EPHEMERIS_TYPE":0,"CLASSIFICATION_TYPE":"U","NORAD_CAT_ID":49218,"ELEMENT_SET_NO":999,"REV_AT_EPOCH":22838,"BSTAR":0.00091593,"MEAN_MOTION_DOT":3.47e-06,"MEAN_MOTION_DDOT":0.0},{"OBJECT_NAME":"ONEWEB-0357","OBJECT_ID":"2021-083AK","EPOCH":"2026-05-28T21:18:53.604288","MEAN_MOTION":13.20771694,"ECCENTRICITY":0.0001739,"INCLINATION":87.9177,"RA_OF_ASC_NODE":278.2794,"ARG_OF_PERICENTER":104.5779,"MEAN_ANOMALY":255.5547,"EPHEMERIS_TYPE":0,"CLASSIFICATION_TYPE":"U","NORAD_CAT_ID":49219,"ELEMENT_SET_NO":999,"REV_AT_EPOCH":23426,"BSTAR":-2.5364e-05,"MEAN_MOTION_DOT":3e-08,"MEAN_MOTION_DDOT":0.0},{"OBJECT_NAME":"ONEWEB-0332","OBJECT_ID":"2021-090A","EPOCH":"2026-05-28T23:03:35.707680","MEAN_MOTION":13.14503474,"ECCENTRICITY":0.0001677,"INCLINATION":87.8946,"RA_OF_ASC_NODE":293.5428,"ARG_OF_PERICENTER":93.0813,"MEAN_ANOMALY":267.0509,"EPHEMERIS_TYPE":0,"CLASSIFICATION_TYPE":"U","NORAD_CAT_ID":49279,"ELEMENT_SET_NO":999,"REV_AT_EPOCH":22505,"BSTAR":-0.00062113,"MEAN_MOTION_DOT":-2.17e-06,"MEAN_MOTION_DDOT":0.0},{"OBJECT_NAME":"ONEWEB-0347","OBJECT_ID":"2021-090B","EPOCH":"2026-05-28T21:04:20.616096","MEAN_MOTION":13.20772952,"ECCENTRICITY":0.0001757,"INCLINATION":87.9178,"RA_OF_ASC_NODE":278.2899,"ARG_OF_PERICENTER":93.204,"MEAN_ANOMALY":266.9294,"EPHEMERIS_TYPE":0,"CLASSIFICATION_TYPE":"U","NORAD_CAT_ID":49280,"ELEMENT_SET_NO":999,"REV_AT_EPOCH":22849,"BSTAR":1.2758000000000001e-06,"MEAN_MOTION_DOT":1.4e-07,"MEAN_MOTION_DDOT":0.0},{"OBJECT_NAME":"ONEWEB-0349","OBJECT_ID":"2021-090C","EPOCH":"2026-05-28T20:01:18.295392","MEAN_MOTION":13.20770029,"ECCENTRICITY":0.000188,"INCLINATION":87.9178,"RA_OF_ASC_NODE":278.2993,"ARG_OF_PERICENTER":101.0482,"MEAN_ANOMALY":259.0863,"EPHEMERIS_TYPE":0,"CLASSIFICATION_TYPE":"U","NORAD_CAT_ID":49281,"ELEMENT_SET_NO":999,"REV_AT_EPOCH":22727,"BSTAR":0.0001289,"MEAN_MOTION_DOT":6.5e-07,"MEAN_MOTION_DDOT":0.0},{"OBJECT_NAME":"ONEWEB-0353","OBJECT_ID":"2021-090D","EPOCH":"2026-05-28T22:52:11.021376","MEAN_MOTION":13.14501487,"ECCENTRICITY":0.0001684,"INCLINATION":87.8948,"RA_OF_ASC_NODE":293.5397,"ARG_OF_PERICENTER":91.5207,"MEAN_ANOMALY":268.6116,"EPHEMERIS_TYPE":0,"CLASSIFICATION_TYPE":"U","NORAD_CAT_ID":49282,"ELEMENT_SET_NO":999,"REV_AT_EPOCH":22505,"BSTAR":-0.00022769,"MEAN_MOTION_DOT":-7.2e-07,"MEAN_MOTION_DDOT":0.0}]